{"fetched_at":"2026-03-30T09:12:31Z","count":15922,"tles":[{"name":"STARLINK-3629","line1":"1 51774U 22017G   26087.73846659  .00000771  00000+0  66524-4 0  9998","line2":"2 51774  53.2163 253.6074 0001276  95.6059 264.5078 15.08852099225449","category":"Starlink"}]}